*******************************************************************************
Ephemeris / WWW_USER Mon Jul 15 19:34:24 2024 Pasadena, USA      / Horizons    
*******************************************************************************
Target body name: (2015 BP519)                    {source: JPL#11}
Center body name: Earth (399)                     {source: DE441}
Center-site name: Gemini South Obs., Cerro Pachon
*******************************************************************************
Start time      : A.D. 2018-Nov-27 23:36:00.0000 UT      
Stop  time      : A.D. 2018-Nov-28 09:25:00.0000 UT      
Step-size       : 1 minutes
*******************************************************************************
Target pole/equ : undefined
Target radii    : undefined                                                    
Center geodetic : 289.2634, -30.2406227, 2.71233  {E-lon(deg),Lat(deg),Alt(km)}
Center cylindric: 289.2634,5517.21435,-3194.81213 {E-lon(deg),Dxy(km),Dz(km)}
Center pole/equ : ITRF93                          {East-longitude positive}
Center radii    : 6378.137, 6378.137, 6356.752 km {Equator_a, b, pole_c}       
Target primary  : Sun
Vis. interferer : MOON (R_eq= 1737.400) km        {source: DE441}
Rel. light bend : Sun                             {source: DE441}
Rel. lght bnd GM: 1.3271E+11 km^3/s^2                                          
Small-body perts: Yes                             {source: SB441-N16}
Atmos refraction: NO (AIRLESS)
RA format       : HMS
Time format     : CAL 
Calendar mode   : Mixed Julian/Gregorian
RTS-only print  : NO       
EOP file        : eop.240715.p241008                                           
EOP coverage    : DATA-BASED 1962-JAN-20 TO 2024-JUL-15. PREDICTS-> 2024-OCT-07
Units conversion: 1 au= 149597870.700 km, c= 299792.458 km/s, 1 day= 86400.0 s 
Table cut-offs 1: Elevation (-90.0deg=NO ),Airmass (>38.000=NO), Daylight (YES)
Table cut-offs 2: Solar elongation (  0.0,180.0=NO ),Local Hour Angle( 0.0=NO )
Table cut-offs 3: RA/DEC angular rate (     0.0=NO )                           
*******************************************************************************
Initial IAU76/J2000 heliocentric ecliptic osculating elements (au, days, deg.):
  EPOCH=  2459185.5 ! 2020-Dec-02.00 (TDB)         Residual RMS= .076636       
   EC= .9196800569382362   QR= 35.27062259520413   TP= 2473034.2681888649      
   OM= 135.0361763364557   W=  348.1354702472351   IN= 54.13300168900849       
  Equivalent ICRF heliocentric cartesian coordinates (au, au/d):
   X= 1.527332710437156E+01  Y= 4.057000090505051E+01  Z=-2.695001507835700E+01
  VX=-2.654302427537234E-03 VY= 4.512065776218028E-05 VZ= 1.968031006040699E-03
Asteroid physical parameters (km, seconds, rotational period in hours):        
   GM= n.a.                RAD= n.a.               ROTPER= n.a.                
   H= 4.34                 G= .150                 B-V= n.a.                   
                           ALBEDO= n.a.            STYP= n.a.                  
*******************************************************************************
 Date__(UT)__HR:MN     R.A._________(ICRF)_________DEC
******************************************************
$$SOE
 2018-Nov-28 05:45  m  04 28 11.708261 -33 41 29.77033
 2018-Nov-28 05:46  m  04 28 11.704944 -33 41 29.77323
 2018-Nov-28 05:47  m  04 28 11.701628 -33 41 29.77614
 2018-Nov-28 05:48  m  04 28 11.698313 -33 41 29.77904
 2018-Nov-28 05:49  m  04 28 11.694997 -33 41 29.78194
 2018-Nov-28 05:50  m  04 28 11.691681 -33 41 29.78484
 2018-Nov-28 05:51  m  04 28 11.688365 -33 41 29.78774
 2018-Nov-28 05:52  m  04 28 11.685049 -33 41 29.79063
 2018-Nov-28 05:53  m  04 28 11.681734 -33 41 29.79352
 2018-Nov-28 05:54  m  04 28 11.678418 -33 41 29.79641
 2018-Nov-28 05:55  m  04 28 11.675103 -33 41 29.79930
 2018-Nov-28 05:56  m  04 28 11.671787 -33 41 29.80219
 2018-Nov-28 05:57  m  04 28 11.668472 -33 41 29.80507
 2018-Nov-28 05:58  m  04 28 11.665157 -33 41 29.80796
 2018-Nov-28 05:59  m  04 28 11.661841 -33 41 29.81084
 2018-Nov-28 06:00  m  04 28 11.658526 -33 41 29.81372
 2018-Nov-28 06:01  m  04 28 11.655211 -33 41 29.81659
 2018-Nov-28 06:02  m  04 28 11.651896 -33 41 29.81947
 2018-Nov-28 06:03  m  04 28 11.648581 -33 41 29.82234
 2018-Nov-28 06:04  m  04 28 11.645266 -33 41 29.82521
 2018-Nov-28 06:05  m  04 28 11.641952 -33 41 29.82808
 2018-Nov-28 06:06  m  04 28 11.638637 -33 41 29.83095
 2018-Nov-28 06:07  m  04 28 11.635322 -33 41 29.83381
 2018-Nov-28 06:08  m  04 28 11.632008 -33 41 29.83668
 2018-Nov-28 06:09  m  04 28 11.628693 -33 41 29.83954
 2018-Nov-28 06:10  m  04 28 11.625379 -33 41 29.84240
 2018-Nov-28 06:11  m  04 28 11.622064 -33 41 29.84526
 2018-Nov-28 06:12  m  04 28 11.618750 -33 41 29.84811
 2018-Nov-28 06:13  m  04 28 11.615436 -33 41 29.85096
 2018-Nov-28 06:14  m  04 28 11.612122 -33 41 29.85382
 2018-Nov-28 06:15  m  04 28 11.608808 -33 41 29.85667
 2018-Nov-28 06:16  m  04 28 11.605494 -33 41 29.85951
 2018-Nov-28 06:17  m  04 28 11.602180 -33 41 29.86236
 2018-Nov-28 06:18  m  04 28 11.598866 -33 41 29.86520
 2018-Nov-28 06:19  m  04 28 11.595553 -33 41 29.86805
 2018-Nov-28 06:20  m  04 28 11.592239 -33 41 29.87089
 2018-Nov-28 06:21  m  04 28 11.588926 -33 41 29.87372
 2018-Nov-28 06:22  m  04 28 11.585612 -33 41 29.87656
 2018-Nov-28 06:23  m  04 28 11.582299 -33 41 29.87939
 2018-Nov-28 06:24  m  04 28 11.578986 -33 41 29.88223
 2018-Nov-28 06:25  m  04 28 11.575673 -33 41 29.88506
 2018-Nov-28 06:26  m  04 28 11.572360 -33 41 29.88789
 2018-Nov-28 06:27  m  04 28 11.569047 -33 41 29.89071
 2018-Nov-28 06:28  m  04 28 11.565734 -33 41 29.89354
 2018-Nov-28 06:29  m  04 28 11.562421 -33 41 29.89636
 2018-Nov-28 06:30  m  04 28 11.559109 -33 41 29.89918
 2018-Nov-28 06:31  m  04 28 11.555796 -33 41 29.90200
 2018-Nov-28 06:32  m  04 28 11.552484 -33 41 29.90482
 2018-Nov-28 06:33  m  04 28 11.549171 -33 41 29.90764
 2018-Nov-28 06:34  m  04 28 11.545859 -33 41 29.91045
 2018-Nov-28 06:35  m  04 28 11.542547 -33 41 29.91326
 2018-Nov-28 06:36  m  04 28 11.539235 -33 41 29.91607
 2018-Nov-28 06:37  m  04 28 11.535923 -33 41 29.91888
 2018-Nov-28 06:38  m  04 28 11.532611 -33 41 29.92169
 2018-Nov-28 06:39  m  04 28 11.529299 -33 41 29.92449
 2018-Nov-28 06:40  m  04 28 11.525988 -33 41 29.92729
 2018-Nov-28 06:41  m  04 28 11.522676 -33 41 29.93009
 2018-Nov-28 06:42  m  04 28 11.519365 -33 41 29.93289
 2018-Nov-28 06:43  m  04 28 11.516054 -33 41 29.93569
 2018-Nov-28 06:44  m  04 28 11.512742 -33 41 29.93849
 2018-Nov-28 06:45  m  04 28 11.509431 -33 41 29.94128
 2018-Nov-28 06:46  m  04 28 11.506120 -33 41 29.94407
 2018-Nov-28 06:47  m  04 28 11.502810 -33 41 29.94686
 2018-Nov-28 06:48  m  04 28 11.499499 -33 41 29.94965
 2018-Nov-28 06:49  m  04 28 11.496188 -33 41 29.95243
 2018-Nov-28 06:50  m  04 28 11.492878 -33 41 29.95522
 2018-Nov-28 06:51  m  04 28 11.489567 -33 41 29.95800
 2018-Nov-28 06:52  m  04 28 11.486257 -33 41 29.96078
 2018-Nov-28 06:53  m  04 28 11.482947 -33 41 29.96356
 2018-Nov-28 06:54  m  04 28 11.479637 -33 41 29.96634
 2018-Nov-28 06:55  m  04 28 11.476327 -33 41 29.96911
 2018-Nov-28 06:56  m  04 28 11.473017 -33 41 29.97189
 2018-Nov-28 06:57  m  04 28 11.469707 -33 41 29.97466
 2018-Nov-28 06:58  m  04 28 11.466398 -33 41 29.97743
 2018-Nov-28 06:59  m  04 28 11.463088 -33 41 29.98020
 2018-Nov-28 07:00  m  04 28 11.459779 -33 41 29.98296
 2018-Nov-28 07:01  m  04 28 11.456470 -33 41 29.98573
 2018-Nov-28 07:02  m  04 28 11.453161 -33 41 29.98849
 2018-Nov-28 07:03  m  04 28 11.449852 -33 41 29.99125
 2018-Nov-28 07:04  m  04 28 11.446543 -33 41 29.99401
 2018-Nov-28 07:05  m  04 28 11.443234 -33 41 29.99677
 2018-Nov-28 07:06  m  04 28 11.439926 -33 41 29.99952
 2018-Nov-28 07:07  m  04 28 11.436617 -33 41 30.00228
 2018-Nov-28 07:08  m  04 28 11.433309 -33 41 30.00503
 2018-Nov-28 07:09  m  04 28 11.430001 -33 41 30.00778
 2018-Nov-28 07:10  m  04 28 11.426693 -33 41 30.01053
 2018-Nov-28 07:11  m  04 28 11.423385 -33 41 30.01328
 2018-Nov-28 07:12  m  04 28 11.420077 -33 41 30.01602
 2018-Nov-28 07:13  m  04 28 11.416769 -33 41 30.01877
 2018-Nov-28 07:14  m  04 28 11.413462 -33 41 30.02151
 2018-Nov-28 07:15  m  04 28 11.410155 -33 41 30.02425
 2018-Nov-28 07:16  m  04 28 11.406847 -33 41 30.02699
 2018-Nov-28 07:17  m  04 28 11.403540 -33 41 30.02972
 2018-Nov-28 07:18  m  04 28 11.400233 -33 41 30.03246
 2018-Nov-28 07:19  m  04 28 11.396926 -33 41 30.03519
 2018-Nov-28 07:20  m  04 28 11.393620 -33 41 30.03792
 2018-Nov-28 07:21  m  04 28 11.390313 -33 41 30.04065
 2018-Nov-28 07:22  m  04 28 11.387007 -33 41 30.04338
 2018-Nov-28 07:23  m  04 28 11.383700 -33 41 30.04611
 2018-Nov-28 07:24  m  04 28 11.380394 -33 41 30.04883
 2018-Nov-28 07:25  m  04 28 11.377088 -33 41 30.05156
 2018-Nov-28 07:26  m  04 28 11.373782 -33 41 30.05428
 2018-Nov-28 07:27  m  04 28 11.370477 -33 41 30.05700
 2018-Nov-28 07:28  m  04 28 11.367171 -33 41 30.05972
 2018-Nov-28 07:29  m  04 28 11.363866 -33 41 30.06243
 2018-Nov-28 07:30  m  04 28 11.360561 -33 41 30.06515
 2018-Nov-28 07:31  m  04 28 11.357255 -33 41 30.06786
 2018-Nov-28 07:32  m  04 28 11.353950 -33 41 30.07057
 2018-Nov-28 07:33  m  04 28 11.350646 -33 41 30.07328
 2018-Nov-28 07:34  m  04 28 11.347341 -33 41 30.07599
 2018-Nov-28 07:35  m  04 28 11.344036 -33 41 30.07870
 2018-Nov-28 07:36  m  04 28 11.340732 -33 41 30.08140
 2018-Nov-28 07:37  m  04 28 11.337428 -33 41 30.08411
 2018-Nov-28 07:38  m  04 28 11.334124 -33 41 30.08681
 2018-Nov-28 07:39  m  04 28 11.330820 -33 41 30.08951
 2018-Nov-28 07:40  m  04 28 11.327516 -33 41 30.09221
 2018-Nov-28 07:41  m  04 28 11.324212 -33 41 30.09491
 2018-Nov-28 07:42  m  04 28 11.320909 -33 41 30.09760
 2018-Nov-28 07:43  m  04 28 11.317606 -33 41 30.10029
 2018-Nov-28 07:44  m  04 28 11.314303 -33 41 30.10299
 2018-Nov-28 07:45  m  04 28 11.311000 -33 41 30.10568
 2018-Nov-28 07:46  m  04 28 11.307697 -33 41 30.10837
 2018-Nov-28 07:47  m  04 28 11.304394 -33 41 30.11105
